[{"OBJECT_NAME":"FLOCK 4G-11","OBJECT_ID":"2025-009W","EPOCH":"2026-03-09T10:57:03.681504","MEAN_MOTION":15.27220677,"ECCENTRICITY":0.00016118,"INCLINATION":97.3964,"RA_OF_ASC_NODE":150.6183,"ARG_OF_PERICENTER":333.5407,"MEAN_ANOMALY":26.575,"EPHEMERIS_TYPE":0,"CLASSIFICATION_TYPE":"U","NORAD_CAT_ID":62629,"ELEMENT_SET_NO":999,"REV_AT_EPOCH":6368,"BSTAR":0.00047740378,"MEAN_MOTION_DOT":0.00012672,"MEAN_MOTION_DDOT":0},{"OBJECT_NAME":"STARLINK-36143","OBJECT_ID":"2025-294AC","EPOCH":"2026-03-09T07:35:34.890720","MEAN_MOTION":15.27577073,"ECCENTRICITY":0.00015423,"INCLINATION":43.0039,"RA_OF_ASC_NODE":40.049,"ARG_OF_PERICENTER":252.6337,"MEAN_ANOMALY":107.4346,"EPHEMERIS_TYPE":0,"CLASSIFICATION_TYPE":"U","NORAD_CAT_ID":67056,"ELEMENT_SET_NO":999,"REV_AT_EPOCH":1474,"BSTAR":0.00065286204,"MEAN_MOTION_DOT":0.00017745,"MEAN_MOTION_DDOT":0}]
